[{"OBJECT_NAME":"STARLINK-34885","OBJECT_ID":"2025-189F","EPOCH":"2026-03-09T16:08:44.062080","MEAN_MOTION":15.3019596,"ECCENTRICITY":9.665e-5,"INCLINATION":53.1575,"RA_OF_ASC_NODE":206.8608,"ARG_OF_PERICENTER":93.0634,"MEAN_ANOMALY":267.0477,"EPHEMERIS_TYPE":0,"CLASSIFICATION_TYPE":"U","NORAD_CAT_ID":65328,"ELEMENT_SET_NO":999,"REV_AT_EPOCH":3104,"BSTAR":0.00080553649,"MEAN_MOTION_DOT":0.00023571,"MEAN_MOTION_DDOT":0},{"OBJECT_NAME":"KUIPER-00180","OBJECT_ID":"2026-030E","EPOCH":"2026-03-09T22:29:40.634304","MEAN_MOTION":15.31865817,"ECCENTRICITY":0.00157227,"INCLINATION":51.8823,"RA_OF_ASC_NODE":218.464,"ARG_OF_PERICENTER":75.5448,"MEAN_ANOMALY":284.728,"EPHEMERIS_TYPE":0,"CLASSIFICATION_TYPE":"U","NORAD_CAT_ID":67768,"ELEMENT_SET_NO":999,"REV_AT_EPOCH":512,"BSTAR":0.011360708,"MEAN_MOTION_DOT":0.00373574,"MEAN_MOTION_DDOT":0}]
